FENGYUN 1C DEB          
1 31781U 99025CGG 17344.99444452  .00000905  00000-0  62787-3 0  9992
2 31781  99.4760  53.2622 0280743 208.5976 149.9532 13.84270336534763
